[{"OBJECT_NAME":"CONTINUUM-1","OBJECT_ID":"2023-001AN","EPOCH":"2026-03-09T23:17:35.458656","MEAN_MOTION":15.27981258,"ECCENTRICITY":0.00109493,"INCLINATION":97.3456,"RA_OF_ASC_NODE":133.3964,"ARG_OF_PERICENTER":60.1976,"MEAN_ANOMALY":300.0351,"EPHEMERIS_TYPE":0,"CLASSIFICATION_TYPE":"U","NORAD_CAT_ID":55045,"ELEMENT_SET_NO":999,"REV_AT_EPOCH":17709,"BSTAR":0.00052859897,"MEAN_MOTION_DOT":0.00014395,"MEAN_MOTION_DDOT":0},{"OBJECT_NAME":"STARLINK-34153","OBJECT_ID":"2025-099R","EPOCH":"2026-03-09T07:42:07.073280","MEAN_MOTION":15.27593751,"ECCENTRICITY":0.00029628,"INCLINATION":43.0017,"RA_OF_ASC_NODE":177.9718,"ARG_OF_PERICENTER":274.6015,"MEAN_ANOMALY":85.4498,"EPHEMERIS_TYPE":0,"CLASSIFICATION_TYPE":"U","NORAD_CAT_ID":63967,"ELEMENT_SET_NO":999,"REV_AT_EPOCH":4728,"BSTAR":0.00088076159,"MEAN_MOTION_DOT":0.00024065,"MEAN_MOTION_DDOT":0}]
